start=new Date('2022-04-08T00:00:00.000Z').valueOf();
sats=[{"OBJECT_NAME":"STARLINK-2589","SEMIMAJOR_AXIS":"6925.319","DECAY_DATE":null,"RA_OF_ASC_NODE":"299.3529","MEAN_MOTION_DDOT":"0.0000000000000","REV_AT_EPOCH":"5135","REF_FRAME":"TEME","ELEMENT_SET_NO":"999","TIME_SYSTEM":"UTC","FILE":"3392478","ECCENTRICITY":"0.00016870","SITE":"AFETR","MEAN_MOTION_DOT":"0.00003968","PERIOD":"95.592","GP_ID":"200701788","MEAN_ELEMENT_THEORY":"SGP4","MEAN_MOTION":"15.06409726","CENTER_NAME":"EARTH","ARG_OF_PERICENTER":"66.9843","TLE_LINE2":"2 48371  53.0548 299.3529 0001687  66.9843 293.1323 15.06409726 51354","APOAPSIS":"548.352","TLE_LINE1":"1 48371U 21038U   22097.86266723  .00003968  00000-0  28506-3 0  9997","OBJECT_ID":"2021-038U","RCS_SIZE":"LARGE","MEAN_ANOMALY":"293.1323","CLASSIFICATION_TYPE":"U","EPHEMERIS_TYPE":"0","LAUNCH_DATE":"2021-05-04","NORAD_CAT_ID":"48371","COUNTRY_CODE":"US","OBJECT_TYPE":"PAYLOAD","EPOCH":"2022-04-07T20:42:14.448672","INCLINATION":"53.0548","PERIAPSIS":"546.015","BSTAR":"0.00028506000000"},{"RA_OF_ASC_NODE":"299.3682","MEAN_MOTION_DDOT":"0.0000000000000","REV_AT_EPOCH":"5135","OBJECT_NAME":"STARLINK-2572","SEMIMAJOR_AXIS":"6925.360","DECAY_DATE":null,"TIME_SYSTEM":"UTC","ECCENTRICITY":"0.00016120","FILE":"3392478","ELEMENT_SET_NO":"999","REF_FRAME":"TEME","CENTER_NAME":"EARTH","ARG_OF_PERICENTER":"56.7130","TLE_LINE1":"1 48372U 21038V   22097.85898343  .00001469  00000-0  11753-3 0  9996","APOAPSIS":"548.342","TLE_LINE2":"2 48372  53.0543 299.3682 0001612  56.7130 303.4014 15.06396135 51355","MEAN_ANOMALY":"303.4014","RCS_SIZE":"LARGE","OBJECT_ID":"2021-038V","PERIOD":"95.592","MEAN_MOTION_DOT":"0.00001469","SITE":"AFETR","MEAN_ELEMENT_THEORY":"SGP4","GP_ID":"200700537","MEAN_MOTION":"15.06396135","INCLINATION":"53.0543","BSTAR":"0.00011753000000","PERIAPSIS":"546.109","EPHEMERIS_TYPE":"0","CLASSIFICATION_TYPE":"U","LAUNCH_DATE":"2021-05-04","NORAD_CAT_ID":"48372","EPOCH":"2022-04-07T20:36:56.168352","OBJECT_TYPE":"PAYLOAD","COUNTRY_CODE":"US"},{"MEAN_ELEMENT_THEORY":"SGP4","GP_ID":"200700787","MEAN_MOTION_DOT":"0.00002143","PERIOD":"95.592","SITE":"AFETR","MEAN_MOTION":"15.06408050","APOAPSIS":"548.007","TLE_LINE1":"1 48373U 21038W   22097.85529129  .00002143  00000-0  16265-3 0  9993","TLE_LINE2":"2 48373  53.0530 299.3858 0001182  63.9576 296.1535 15.06408050 51359","ARG_OF_PERICENTER":"63.9576","CENTER_NAME":"EARTH","RCS_SIZE":"LARGE","MEAN_ANOMALY":"296.1535","OBJECT_ID":"2021-038W","LAUNCH_DATE":"2021-05-04","EPHEMERIS_TYPE":"0","CLASSIFICATION_TYPE":"U","EPOCH":"2022-04-07T20:31:37.167456","COUNTRY_CODE":"US","OBJECT_TYPE":"PAYLOAD","NORAD_CAT_ID":"48373","INCLINATION":"53.0530","BSTAR":"0.00016265000000","PERIAPSIS":"546.370","OBJECT_NAME":"STARLINK-2609","DECAY_DATE":null,"SEMIMAJOR_AXIS":"6925.324","RA_OF_ASC_NODE":"299.3858","REV_AT_EPOCH":"5135","MEAN_MOTION_DDOT":"0.0000000000000","ELEMENT_SET_NO":"999","REF_FRAME":"TEME","FILE":"3392478","ECCENTRICITY":"0.00011820","TIME_SYSTEM":"UTC"},{"LAUNCH_DATE":"2021-05-04","CLASSIFICATION_TYPE":"U","EPHEMERIS_TYPE":"0","OBJECT_TYPE":"PAYLOAD","COUNTRY_CODE":"US","EPOCH":"2022-04-07T20:26:18.770496","NORAD_CAT_ID":"48374","INCLINATION":"53.0556","PERIAPSIS":"546.137","BSTAR":"0.00008823900000","GP_ID":"200701033","MEAN_ELEMENT_THEORY":"SGP4","SITE":"AFETR","PERIOD":"95.592","MEAN_MOTION_DOT":"0.00001033","MEAN_MOTION":"15.06400303","TLE_LINE2":"2 48374  53.0556 299.3987 0001553  61.4676 298.6469 15.06400303 51353","TLE_LINE1":"1 48374U 21038X   22097.85160614  .00001033  00000-0  88239-4 0  9992","APOAPSIS":"548.288","ARG_OF_PERICENTER":"61.4676","CENTER_NAME":"EARTH","OBJECT_ID":"2021-038X","MEAN_ANOMALY":"298.6469","RCS_SIZE":"LARGE","ELEMENT_SET_NO":"999","REF_FRAME":"TEME","FILE":"3392478","ECCENTRICITY":"0.00015530","TIME_SYSTEM":"UTC","OBJECT_NAME":"STARLINK-2604","DECAY_DATE":null,"SEMIMAJOR_AXIS":"6925.348","RA_OF_ASC_NODE":"299.3987","REV_AT_EPOCH":"5135","MEAN_MOTION_DDOT":"0.0000000000000"},{"INCLINATION":"53.0546","PERIAPSIS":"546.164","BSTAR":"0.00009906100000","CLASSIFICATION_TYPE":"U","EPHEMERIS_TYPE":"0","LAUNCH_DATE":"2021-05-04","NORAD_CAT_ID":"48375","COUNTRY_CODE":"US","OBJECT_TYPE":"PAYLOAD","EPOCH":"2022-04-07T20:21:00.655200","ARG_OF_PERICENTER":"59.8333","CENTER_NAME":"EARTH","TLE_LINE2":"2 48375  53.0546 299.4146 0001508  59.8333 300.2805 15.06401639 51359","APOAPSIS":"548.253","TLE_LINE1":"1 48375U 21038Y   22097.84792425  .00001194  00000-0  99061-4 0  9996","OBJECT_ID":"2021-038Y","MEAN_ANOMALY":"300.2805","RCS_SIZE":"LARGE","SITE":"AFETR","PERIOD":"95.592","MEAN_MOTION_DOT":"0.00001194","GP_ID":"200701288","MEAN_ELEMENT_THEORY":"SGP4","MEAN_MOTION":"15.06401639","TIME_SYSTEM":"UTC","ECCENTRICITY":"0.00015080","FILE":"3392478","ELEMENT_SET_NO":"999","REF_FRAME":"TEME","RA_OF_ASC_NODE":"299.4146","MEAN_MOTION_DDOT":"0.0000000000000","REV_AT_EPOCH":"5135","OBJECT_NAME":"STARLINK-2603","SEMIMAJOR_AXIS":"6925.344","DECAY_DATE":null},{"MEAN_MOTION":"15.06404184","SITE":"AFETR","MEAN_MOTION_DOT":"0.00000016","PERIOD":"95.592","GP_ID":"200700037","MEAN_ELEMENT_THEORY":"SGP4","OBJECT_ID":"2021-038Z","RCS_SIZE":"LARGE","MEAN_ANOMALY":"287.8435","CENTER_NAME":"EARTH","ARG_OF_PERICENTER":"72.2706","TLE_LINE2":"2 48376  53.0541 299.4373 0001394  72.2706 287.8435 15.06404184 51350","TLE_LINE1":"1 48376U 21038Z   22097.84423266  .00000016  00000-0  19979-4 0  9993","APOAPSIS":"548.166","NORAD_CAT_ID":"48376","OBJECT_TYPE":"PAYLOAD","COUNTRY_CODE":"US","EPOCH":"2022-04-07T20:15:41.701824","CLASSIFICATION_TYPE":"U","EPHEMERIS_TYPE":"0","LAUNCH_DATE":"2021-05-04","PERIAPSIS":"546.235","BSTAR":"0.00001997900000","INCLINATION":"53.0541","SEMIMAJOR_AXIS":"6925.336","DECAY_DATE":null,"OBJECT_NAME":"STARLINK-2610","MEAN_MOTION_DDOT":"0.0000000000000","REV_AT_EPOCH":"5135","RA_OF_ASC_NODE":"299.4373","REF_FRAME":"TEME","ELEMENT_SET_NO":"999","TIME_SYSTEM":"UTC","ECCENTRICITY":"0.00013940","FILE":"3392478"},{"OBJECT_ID":"2021-038AA","RCS_SIZE":"LARGE","MEAN_ANOMALY":"298.7576","TLE_LINE2":"2 48377  53.0538 299.4464 0001596  61.3573 298.7576 15.06398840 51351","TLE_LINE1":"1 48377U 21038AA  22097.84054937  .00001479  00000-0  11819-3 0  9997","APOAPSIS":"548.322","ARG_OF_PERICENTER":"61.3573","CENTER_NAME":"EARTH","MEAN_MOTION":"15.06398840","GP_ID":"200700287","MEAN_ELEMENT_THEORY":"SGP4","SITE":"AFETR","MEAN_MOTION_DOT":"0.00001479","PERIOD":"95.592","PERIAPSIS":"546.112","BSTAR":"0.00011819000000","INCLINATION":"53.0538","COUNTRY_CODE":"US","OBJECT_TYPE":"PAYLOAD","EPOCH":"2022-04-07T20:10:23.465568","NORAD_CAT_ID":"48377","LAUNCH_DATE":"2021-05-04","CLASSIFICATION_TYPE":"U","EPHEMERIS_TYPE":"0","REV_AT_EPOCH":"5135","MEAN_MOTION_DDOT":"0.0000000000000","RA_OF_ASC_NODE":"299.4464","DECAY_DATE":null,"SEMIMAJOR_AXIS":"6925.352","OBJECT_NAME":"STARLINK-2499","FILE":"3392478","ECCENTRICITY":"0.00015960","TIME_SYSTEM":"UTC","REF_FRAME":"TEME","ELEMENT_SET_NO":"999"},{"OBJECT_NAME":"STARLINK-2526","DECAY_DATE":null,"SEMIMAJOR_AXIS":"6925.303","RA_OF_ASC_NODE":"299.4637","REV_AT_EPOCH":"5135","MEAN_MOTION_DDOT":"0.0000000000000","ELEMENT_SET_NO":"999","REF_FRAME":"TEME","ECCENTRICITY":"0.00018430","FILE":"3392478","TIME_SYSTEM":"UTC","GP_ID":"200701534","MEAN_ELEMENT_THEORY":"SGP4","SITE":"AFETR","MEAN_MOTION_DOT":"0.00010774","PERIOD":"95.591","MEAN_MOTION":"15.06414840","TLE_LINE2":"2 48378  53.0543 299.4637 0001843  62.0322 298.0853 15.06414840 51355","APOAPSIS":"548.444","TLE_LINE1":"1 48378U 21038AB  22097.83686716  .00010774  00000-0  74079-3 0  9998","CENTER_NAME":"EARTH","ARG_OF_PERICENTER":"62.0322","OBJECT_ID":"2021-038AB","RCS_SIZE":"LARGE","MEAN_ANOMALY":"298.0853","LAUNCH_DATE":"2021-05-04","CLASSIFICATION_TYPE":"U","EPHEMERIS_TYPE":"0","OBJECT_TYPE":"PAYLOAD","COUNTRY_CODE":"US","EPOCH":"2022-04-07T20:05:05.322624","NORAD_CAT_ID":"48378","INCLINATION":"53.0543","PERIAPSIS":"545.892","BSTAR":"0.00074079000000"},{"MEAN_MOTION_DOT":"0.00005540","PERIOD":"95.592","SITE":"AFETR","MEAN_ELEMENT_THEORY":"SGP4","GP_ID":"200701789","MEAN_MOTION":"15.06402361","ARG_OF_PERICENTER":"61.5040","CENTER_NAME":"EARTH","APOAPSIS":"548.232","TLE_LINE1":"1 48379U 21038AC  22097.83318127  .00005540  00000-0  39052-3 0  9994","TLE_LINE2":"2 48379  53.0547 299.4785 0001481  61.5040 298.6098 15.06402361 51355","MEAN_ANOMALY":"298.6098","RCS_SIZE":"MEDIUM","OBJECT_ID":"2021-038AC","EPHEMERIS_TYPE":"0","CLASSIFICATION_TYPE":"U","LAUNCH_DATE":"2021-05-04","NORAD_CAT_ID":"48379","EPOCH":"2022-04-07T19:59:46.861728","OBJECT_TYPE":"PAYLOAD","COUNTRY_CODE":"US","INCLINATION":"53.0547","BSTAR":"0.00039052000000","PERIAPSIS":"546.181","OBJECT_NAME":"STARLINK-2612","SEMIMAJOR_AXIS":"6925.341","DECAY_DATE":null,"RA_OF_ASC_NODE":"299.4785","MEAN_MOTION_DDOT":"0.0000000000000","REV_AT_EPOCH":"5135","REF_FRAME":"TEME","ELEMENT_SET_NO":"999","TIME_SYSTEM":"UTC","FILE":"3392478","ECCENTRICITY":"0.00014810"},{"ECCENTRICITY":"0.00016360","FILE":"3392478","TIME_SYSTEM":"UTC","REF_FRAME":"TEME","ELEMENT_SET_NO":"999","REV_AT_EPOCH":"5135","MEAN_MOTION_DDOT":"0.0000000000000","RA_OF_ASC_NODE":"299.3682","DECAY_DATE":null,"SEMIMAJOR_AXIS":"6925.342","OBJECT_NAME":"STARLINK-2614","BSTAR":"0.00022229000000","PERIAPSIS":"546.074","INCLINATION":"53.0537","EPOCH":"2022-04-07T20:35:34.504800","OBJECT_TYPE":"PAYLOAD","COUNTRY_CODE":"US","NORAD_CAT_ID":"48380","LAUNCH_DATE":"2021-05-04","EPHEMERIS_TYPE":"0","CLASSIFICATION_TYPE":"U","RCS_SIZE":"LARGE","MEAN_ANOMALY":"312.1118","OBJECT_ID":"2021-038AD","TLE_LINE1":"1 48380U 21038AD  22097.85803825  .00003031  00000-0  22229-3 0  9993","APOAPSIS":"548.340","TLE_LINE2":"2 48380  53.0537 299.3682 0001636  48.0010 312.1118 15.06402036 51354","CENTER_NAME":"EARTH","ARG_OF_PERICENTER":"48.0010","MEAN_MOTION":"15.06402036","MEAN_ELEMENT_THEORY":"SGP4","GP_ID":"200700538","MEAN_MOTION_DOT":"0.00003031","PERIOD":"95.592","SITE":"AFETR"}];
